[
  {
    "name": "KUIPER-00114",
    "noradId": "65151",
    "line1": "1 65151U 25171V   26200.27419612  .00001636  00000+0  24347-3 0  9994",
    "line2": "2 65151  51.9008 313.7287 0000465 121.6076 238.4932 14.79939452 52126"
  },
  {
    "name": "KUIPER-00115",
    "noradId": "65152",
    "line1": "1 65152U 25171W   26200.28229350  .00001516  00000+0  22779-3 0  9998",
    "line2": "2 65152  51.9022 306.1948 0000438 125.0278 235.0726 14.79932584 52230"
  },
  {
    "name": "KUIPER-00116",
    "noradId": "65153",
    "line1": "1 65153U 25171X   26200.31065992  .00001599  00000+0  23872-3 0  9999",
    "line2": "2 65153  51.9010 311.1040 0000711  94.2658 265.8386 14.79919513 52162"
  },
  {
    "name": "KUIPER-00118",
    "noradId": "65154",
    "line1": "1 65154U 25171Y   26199.76771112  .00001508  00000+0  22681-3 0  9991",
    "line2": "2 65154  51.9010 315.9556 0000411 106.5232 253.5775 14.79936079 52059"
  },
  {
    "name": "KUIPER-00119",
    "noradId": "65155",
    "line1": "1 65155U 25171Z   26200.25390817  .00004300  00000+0  59238-3 0  9999",
    "line2": "2 65155  51.9025 301.4011 0000070 201.7531 158.3428 14.79953907 52295"
  },
  {
    "name": "KUIPER-00120",
    "noradId": "65762",
    "line1": "1 65762U 25217A   26200.22063012  .00001122  00000+0  17610-3 0  9992",
    "line2": "2 65762  51.8986 191.4255 0000461  56.1821 303.9185 14.79937279 44214"
  },
  {
    "name": "KUIPER-00132",
    "noradId": "65763",
    "line1": "1 65763U 25217B   26199.94577291  .00025307  00000+0  56410-3 0  9990",
    "line2": "2 65763  51.8546  84.3864 0006974  77.8350 282.3420 15.43407994 45676"
  },
  {
    "name": "KUIPER-00133",
    "noradId": "65764",
    "line1": "1 65764U 25217C   26200.25440737  .00001058  00000+0  16769-3 0  9992",
    "line2": "2 65764  51.9031 191.3870 0000499  52.9975 307.1033 14.79939202 44222"
  },
  {
    "name": "KUIPER-00139",
    "noradId": "65765",
    "line1": "1 65765U 25217D   26200.08686524  .00001341  00000+0  20491-3 0  9992",
    "line2": "2 65765  51.8982 159.5840 0000759  80.0937 280.0111 14.79925548 44650"
  },
  {
    "name": "KUIPER-00142",
    "noradId": "65766",
    "line1": "1 65766U 25217E   26200.17196045  .00001213  00000+0  18807-3 0  9993",
    "line2": "2 65766  51.8980 174.1682 0000617  69.3601 290.7427 14.79922843 44458"
  },
  {
    "name": "KUIPER-00145",
    "noradId": "65767",
    "line1": "1 65767U 25217F   26200.30441924  .00001291  00000+0  19836-3 0  9997",
    "line2": "2 65767  51.8994 176.1043 0000690  70.9694 289.1343 14.79926567 44432"
  },
  {
    "name": "KUIPER-00147",
    "noradId": "65768",
    "line1": "1 65768U 25217G   26200.13280069  .00001293  00000+0  19863-3 0  9992",
    "line2": "2 65768  51.8986 179.3442 0000556  88.5821 271.5205 14.79924542 44376"
  },
  {
    "name": "KUIPER-00148",
    "noradId": "65769",
    "line1": "1 65769U 25217H   26200.28668655 -.00000880  00000+0 -86452-4 0  9992",
    "line2": "2 65769  51.9045 161.1778 0000674  49.2739 310.8281 14.79935830 44641"
  },
  {
    "name": "KUIPER-00150",
    "noradId": "65770",
    "line1": "1 65770U 25217J   26200.18952432  .00001148  00000+0  17956-3 0  9990",
    "line2": "2 65770  51.8999 189.1271 0000636  49.1855 310.9163 14.79942474 44242"
  },
  {
    "name": "KUIPER-00151",
    "noradId": "65771",
    "line1": "1 65771U 25217K   26200.19763668  .00001194  00000+0  18566-3 0  9992",
    "line2": "2 65771  51.9011 181.5893 0000443  77.3948 282.7064 14.79921639 44355"
  },
  {
    "name": "KUIPER-00152",
    "noradId": "65772",
    "line1": "1 65772U 25217L   26200.10986475  .00001295  00000+0  19884-3 0  9993",
    "line2": "2 65772  51.9004 169.4619 0000669  65.8310 294.2722 14.79937158 44514"
  }
]