{"fetched_at":"2026-07-19T17:31:08.183Z","source":"https://celestrak.org/NORAD/elements/gp.php?GROUP=kuiper&FORMAT=JSON","constellation":"kuiper","records":[{"OBJECT_NAME":"KUIPER-00114","OBJECT_ID":"2025-171V","EPOCH":"2026-07-19T06:34:50.544768","CLASSIFICATION_TYPE":"U","MEAN_MOTION":14.79939452,"ECCENTRICITY":0.00004651,"INCLINATION":51.9008,"RA_OF_ASC_NODE":313.7287,"ARG_OF_PERICENTER":121.6076,"MEAN_ANOMALY":238.4932,"EPHEMERIS_TYPE":0,"NORAD_CAT_ID":65151,"ELEMENT_SET_NO":999,"REV_AT_EPOCH":5212,"BSTAR":0.00024347496,"MEAN_MOTION_DOT":0.00001636,"MEAN_MOTION_DDOT":0},{"OBJECT_NAME":"KUIPER-00115","OBJECT_ID":"2025-171W","EPOCH":"2026-07-19T06:46:30.158400","CLASSIFICATION_TYPE":"U","MEAN_MOTION":14.79932584,"ECCENTRICITY":0.00004385,"INCLINATION":51.9022,"RA_OF_ASC_NODE":306.1948,"ARG_OF_PERICENTER":125.0278,"MEAN_ANOMALY":235.0726,"EPHEMERIS_TYPE":0,"NORAD_CAT_ID":65152,"ELEMENT_SET_NO":999,"REV_AT_EPOCH":5223,"BSTAR":0.00022778697,"MEAN_MOTION_DOT":0.00001516,"MEAN_MOTION_DDOT":0},{"OBJECT_NAME":"KUIPER-00116","OBJECT_ID":"2025-171X","EPOCH":"2026-07-19T07:27:21.017088","CLASSIFICATION_TYPE":"U","MEAN_MOTION":14.79919513,"ECCENTRICITY":0.00007111,"INCLINATION":51.901,"RA_OF_ASC_NODE":311.104,"ARG_OF_PERICENTER":94.2658,"MEAN_ANOMALY":265.8386,"EPHEMERIS_TYPE":0,"NORAD_CAT_ID":65153,"ELEMENT_SET_NO":999,"REV_AT_EPOCH":5216,"BSTAR":0.00023871735,"MEAN_MOTION_DOT":0.00001599,"MEAN_MOTION_DDOT":0},{"OBJECT_NAME":"KUIPER-00118","OBJECT_ID":"2025-171Y","EPOCH":"2026-07-18T18:25:30.240768","CLASSIFICATION_TYPE":"U","MEAN_MOTION":14.79936079,"ECCENTRICITY":0.00004114,"INCLINATION":51.901,"RA_OF_ASC_NODE":315.9556,"ARG_OF_PERICENTER":106.5232,"MEAN_ANOMALY":253.5775,"EPHEMERIS_TYPE":0,"NORAD_CAT_ID":65154,"ELEMENT_SET_NO":999,"REV_AT_EPOCH":5205,"BSTAR":0.00022680996,"MEAN_MOTION_DOT":0.00001508,"MEAN_MOTION_DDOT":0},{"OBJECT_NAME":"KUIPER-00119","OBJECT_ID":"2025-171Z","EPOCH":"2026-07-19T06:05:37.665888","CLASSIFICATION_TYPE":"U","MEAN_MOTION":14.79953907,"ECCENTRICITY":0.00000702,"INCLINATION":51.9025,"RA_OF_ASC_NODE":301.4011,"ARG_OF_PERICENTER":201.7531,"MEAN_ANOMALY":158.3428,"EPHEMERIS_TYPE":0,"NORAD_CAT_ID":65155,"ELEMENT_SET_NO":999,"REV_AT_EPOCH":5229,"BSTAR":0.00059238408,"MEAN_MOTION_DOT":0.000043,"MEAN_MOTION_DDOT":0},{"OBJECT_NAME":"KUIPER-00120","OBJECT_ID":"2025-217A","EPOCH":"2026-07-19T05:17:42.442368","CLASSIFICATION_TYPE":"U","MEAN_MOTION":14.79937279,"ECCENTRICITY":0.00004615,"INCLINATION":51.8986,"RA_OF_ASC_NODE":191.4255,"ARG_OF_PERICENTER":56.1821,"MEAN_ANOMALY":303.9185,"EPHEMERIS_TYPE":0,"NORAD_CAT_ID":65762,"ELEMENT_SET_NO":999,"REV_AT_EPOCH":4421,"BSTAR":0.00017609797,"MEAN_MOTION_DOT":0.00001122,"MEAN_MOTION_DDOT":0},{"OBJECT_NAME":"KUIPER-00132","OBJECT_ID":"2025-217B","EPOCH":"2026-07-18T22:41:54.779424","CLASSIFICATION_TYPE":"U","MEAN_MOTION":15.43407994,"ECCENTRICITY":0.00069742,"INCLINATION":51.8546,"RA_OF_ASC_NODE":84.3864,"ARG_OF_PERICENTER":77.835,"MEAN_ANOMALY":282.342,"EPHEMERIS_TYPE":0,"NORAD_CAT_ID":65763,"ELEMENT_SET_NO":999,"REV_AT_EPOCH":4567,"BSTAR":0.00056410253,"MEAN_MOTION_DOT":0.00025307,"MEAN_MOTION_DDOT":0},{"OBJECT_NAME":"KUIPER-00133","OBJECT_ID":"2025-217C","EPOCH":"2026-07-19T06:06:20.796768","CLASSIFICATION_TYPE":"U","MEAN_MOTION":14.79939202,"ECCENTRICITY":0.00004995,"INCLINATION":51.9031,"RA_OF_ASC_NODE":191.387,"ARG_OF_PERICENTER":52.9975,"MEAN_ANOMALY":307.1033,"EPHEMERIS_TYPE":0,"NORAD_CAT_ID":65764,"ELEMENT_SET_NO":999,"REV_AT_EPOCH":4422,"BSTAR":0.00016768983,"MEAN_MOTION_DOT":0.00001058,"MEAN_MOTION_DDOT":0},{"OBJECT_NAME":"KUIPER-00139","OBJECT_ID":"2025-217D","EPOCH":"2026-07-19T02:05:05.156736","CLASSIFICATION_TYPE":"U","MEAN_MOTION":14.79925548,"ECCENTRICITY":0.00007591,"INCLINATION":51.8982,"RA_OF_ASC_NODE":159.584,"ARG_OF_PERICENTER":80.0937,"MEAN_ANOMALY":280.0111,"EPHEMERIS_TYPE":0,"NORAD_CAT_ID":65765,"ELEMENT_SET_NO":999,"REV_AT_EPOCH":4465,"BSTAR":0.00020491467,"MEAN_MOTION_DOT":0.00001341,"MEAN_MOTION_DDOT":0},{"OBJECT_NAME":"KUIPER-00142","OBJECT_ID":"2025-217E","EPOCH":"2026-07-19T04:07:37.382880","CLASSIFICATION_TYPE":"U","MEAN_MOTION":14.79922843,"ECCENTRICITY":0.0000617,"INCLINATION":51.898,"RA_OF_ASC_NODE":174.1682,"ARG_OF_PERICENTER":69.3601,"MEAN_ANOMALY":290.7427,"EPHEMERIS_TYPE":0,"NORAD_CAT_ID":65766,"ELEMENT_SET_NO":999,"REV_AT_EPOCH":4445,"BSTAR":0.00018806694,"MEAN_MOTION_DOT":0.00001213,"MEAN_MOTION_DDOT":0},{"OBJECT_NAME":"KUIPER-00145","OBJECT_ID":"2025-217F","EPOCH":"2026-07-19T07:18:21.822336","CLASSIFICATION_TYPE":"U","MEAN_MOTION":14.79926567,"ECCENTRICITY":0.00006902,"INCLINATION":51.8994,"RA_OF_ASC_NODE":176.1043,"ARG_OF_PERICENTER":70.9694,"MEAN_ANOMALY":289.1343,"EPHEMERIS_TYPE":0,"NORAD_CAT_ID":65767,"ELEMENT_SET_NO":999,"REV_AT_EPOCH":4443,"BSTAR":0.00019836119,"MEAN_MOTION_DOT":0.00001291,"MEAN_MOTION_DDOT":0},{"OBJECT_NAME":"KUIPER-00147","OBJECT_ID":"2025-217G","EPOCH":"2026-07-19T03:11:13.979616","CLASSIFICATION_TYPE":"U","MEAN_MOTION":14.79924542,"ECCENTRICITY":0.00005566,"INCLINATION":51.8986,"RA_OF_ASC_NODE":179.3442,"ARG_OF_PERICENTER":88.5821,"MEAN_ANOMALY":271.5205,"EPHEMERIS_TYPE":0,"NORAD_CAT_ID":65768,"ELEMENT_SET_NO":999,"REV_AT_EPOCH":4437,"BSTAR":0.00019863037,"MEAN_MOTION_DOT":0.00001293,"MEAN_MOTION_DDOT":0},{"OBJECT_NAME":"KUIPER-00148","OBJECT_ID":"2025-217H","EPOCH":"2026-07-19T06:52:49.717920","CLASSIFICATION_TYPE":"U","MEAN_MOTION":14.7993583,"ECCENTRICITY":0.00006749,"INCLINATION":51.9045,"RA_OF_ASC_NODE":161.1778,"ARG_OF_PERICENTER":49.2739,"MEAN_ANOMALY":310.8281,"EPHEMERIS_TYPE":0,"NORAD_CAT_ID":65769,"ELEMENT_SET_NO":999,"REV_AT_EPOCH":4464,"BSTAR":-0.000086451527,"MEAN_MOTION_DOT":-0.0000088,"MEAN_MOTION_DDOT":0},{"OBJECT_NAME":"KUIPER-00150","OBJECT_ID":"2025-217J","EPOCH":"2026-07-19T04:32:54.901248","CLASSIFICATION_TYPE":"U","MEAN_MOTION":14.79942474,"ECCENTRICITY":0.00006368,"INCLINATION":51.8999,"RA_OF_ASC_NODE":189.1271,"ARG_OF_PERICENTER":49.1855,"MEAN_ANOMALY":310.9163,"EPHEMERIS_TYPE":0,"NORAD_CAT_ID":65770,"ELEMENT_SET_NO":999,"REV_AT_EPOCH":4424,"BSTAR":0.00017956467,"MEAN_MOTION_DOT":0.00001148,"MEAN_MOTION_DDOT":0},{"OBJECT_NAME":"KUIPER-00151","OBJECT_ID":"2025-217K","EPOCH":"2026-07-19T04:44:35.809152","CLASSIFICATION_TYPE":"U","MEAN_MOTION":14.79921639,"ECCENTRICITY":0.00004437,"INCLINATION":51.9011,"RA_OF_ASC_NODE":181.5893,"ARG_OF_PERICENTER":77.3948,"MEAN_ANOMALY":282.7064,"EPHEMERIS_TYPE":0,"NORAD_CAT_ID":65771,"ELEMENT_SET_NO":999,"REV_AT_EPOCH":4435,"BSTAR":0.0001856648,"MEAN_MOTION_DOT":0.00001194,"MEAN_MOTION_DDOT":0},{"OBJECT_NAME":"KUIPER-00152","OBJECT_ID":"2025-217L","EPOCH":"2026-07-19T02:38:12.314400","CLASSIFICATION_TYPE":"U","MEAN_MOTION":14.79937158,"ECCENTRICITY":0.00006694,"INCLINATION":51.9004,"RA_OF_ASC_NODE":169.4619,"ARG_OF_PERICENTER":65.831,"MEAN_ANOMALY":294.2722,"EPHEMERIS_TYPE":0,"NORAD_CAT_ID":65772,"ELEMENT_SET_NO":999,"REV_AT_EPOCH":4451,"BSTAR":0.0001988369,"MEAN_MOTION_DOT":0.00001295,"MEAN_MOTION_DDOT":0}]}
